YOTSUBA-KULOVER         
1 65941U 98067XN  26055.21384955  .00146862  00000+0  94234-3 0  9991
2 65941  51.6224 126.8957 0005830 355.4013   4.6931 15.75262971 21373
BOTAN                   
1 65942U 98067XP  26055.28850187  .00826763  33197-3  15426-2 0  9991
2 65942  51.6123 120.5374 0009759  12.7993 347.3263 16.00338792 21469
E-KAGAKU-1              
1 65943U 98067XQ  26055.21608696  .00144588  00000+0  93569-3 0  9997
2 65943  51.6245 126.9254 0006152   4.6501 355.4555 15.75072795 21374
HRC MONOBLOCK CAMERA    
1 66052U 98067XR  26055.25985793  .00043715  00000+0  51985-3 0  9995
2 66052  51.6275 133.2316 0002905  38.8739 321.2463 15.60686812 20297
HTV-X1                  
1 66174U 25241A   26055.21810240  .00011823  00000+0  22802-3 0  9995
2 66174  51.6318 138.9491 0008427 128.0072 232.1679 15.48257925   510
SZ-21 MODULE            
1 66515U 25246C   26054.99727478  .00032253  00000+0  29146-3 0  9991
2 66515  41.4750 287.5769 0001502 290.9828  69.0853 15.67414814 15925
SHENZHOU-22             
1 66645U 25272A   26055.08242906  .00019707  00000+0  23964-3 0  9994
2 66645  41.4668 290.9181 0005449 183.7722 176.3076 15.60067811267640
SOYUZ-MS 28             
1 66664U 25275A   26055.21810240  .00011823  00000+0  22802-3 0  9996
2 66664  51.6318 138.9491 0008427 128.0072 232.1679 15.48257925  1289
DUPLEX                  
1 66906U 98067XS  26055.22502365  .00030718  00000+0  45061-3 0  9997
2 66906  51.6290 136.7494 0001731  74.6912 285.4270 15.55252260 13035
ISS OBJECT XT           
1 66907U 98067XT  26055.25469851  .00116321  00000+0  11396-2 0  9991
2 66907  51.6253 133.9413 0003867   4.7879 355.3153 15.65222160 13071
ISS OBJECT XU           
1 66908U 98067XU  26055.25366959  .00119816  00000+0  11696-2 0  9992
2 66908  51.6250 133.9315 0003914   8.4064 351.6996 15.65299119 13072
SILVERSAT               
1 66909U 98067XV  26055.21166364  .00141977  00000+0  12749-2 0  9990
2 66909  51.6251 133.6518 0004765   2.6469 357.4552 15.67287873 13074
